{
  "type": "FeatureCollection",
  "features": [
    {
      "type": "Feature",
      "properties": {
        "norad_id": 30445,
        "name": "FENGYUN 1C DEB",
        "group": "fengyun-1c-debris",
        "lat": -10.908735047745374,
        "lon": 112.71331039063658,
        "alt_km": 805.9141470547675,
        "timestamp": "2025-12-09T05:43:21.002339+00:00",
        "meta_object_name": "FENGYUN 1C DEB",
        "meta_object_id": "1999-025AFG",
        "meta_epoch": "2025-12-08T20:33:37.622016",
        "meta_mean_motion": 14.48708864,
        "meta_eccentricity": 0.0106225,
        "meta_inclination": 98.8353,
        "meta_ra_of_asc_node": 294.0318,
        "meta_arg_of_pericenter": 29.9258,
        "meta_mean_anomaly": 330.7949,
        "meta_ephemeris_type": 0,
        "meta_classification_type": "U",
        "meta_norad_cat_id": 30445,
        "meta_element_set_no": 999,
        "meta_rev_at_epoch": 99128,
        "meta_bstar": 0.0013467,
        "meta_mean_motion_dot": 5.403e-05,
        "meta_mean_motion_ddot": 0,
        "tle_line1": "1 30445U 99025AFG 25342.85668544  .00005403  00000+0  13467-2 0  9997",
        "tle_line2": "2 30445  98.8353 294.0318 0106225  29.9258 330.7949 14.48708864991286"
      },
      "geometry": {
        "type": "Point",
        "coordinates": [
          112.71331039063658,
          -10.908735047745374
        ]
      }
    },
    {
      "type": "Feature",
      "properties": {
        "norad_id": 30446,
        "name": "FENGYUN 1C DEB",
        "group": "fengyun-1c-debris",
        "lat": 20.149706292460078,
        "lon": 62.5051283362128,
        "alt_km": 742.2594747788489,
        "timestamp": "2025-12-09T05:43:21.002349+00:00",
        "meta_object_name": "FENGYUN 1C DEB",
        "meta_object_id": "1999-025AFH",
        "meta_epoch": "2025-12-08T16:19:48.834048",
        "meta_mean_motion": 14.44649391,
        "meta_eccentricity": 0.0035179,
        "meta_inclination": 98.6141,
        "meta_ra_of_asc_node": 65.1283,
        "meta_arg_of_pericenter": 110.3362,
        "meta_mean_anomaly": 250.1614,
        "meta_ephemeris_type": 0,
        "meta_classification_type": "U",
        "meta_norad_cat_id": 30446,
        "meta_element_set_no": 999,
        "meta_rev_at_epoch": 98118,
        "meta_bstar": 0.0027604,
        "meta_mean_motion_dot": 9.601e-05,
        "meta_mean_motion_ddot": 0,
        "tle_line1": "1 30446U 99025AFH 25342.68042632  .00009601  00000+0  27604-2 0  9995",
        "tle_line2": "2 30446  98.6141  65.1283 0035179 110.3362 250.1614 14.44649391981185"
      },
      "geometry": {
        "type": "Point",
        "coordinates": [
          62.5051283362128,
          20.149706292460078
        ]
      }
    },
    {
      "type": "Feature",
      "properties": {
        "norad_id": 30447,
        "name": "FENGYUN 1C DEB",
        "group": "fengyun-1c-debris",
        "lat": -9.76055593630926,
        "lon": -153.91702617828727,
        "alt_km": 681.6472076627133,
        "timestamp": "2025-12-09T05:43:21.002360+00:00",
        "meta_object_name": "FENGYUN 1C DEB",
        "meta_object_id": "1999-025AFJ",
        "meta_epoch": "2025-12-08T02:25:37.817760",
        "meta_mean_motion": 14.56431832,
        "meta_eccentricity": 0.00599923,
        "meta_inclination": 98.9711,
        "meta_ra_of_asc_node": 203.3031,
        "meta_arg_of_pericenter": 44.3165,
        "meta_mean_anomaly": 106.7659,
        "meta_ephemeris_type": 0,
        "meta_classification_type": "U",
        "meta_norad_cat_id": 30447,
        "meta_element_set_no": 999,
        "meta_rev_at_epoch": 98028,
        "meta_bstar": 0.0030876019,
        "meta_mean_motion_dot": 0.00014023,
        "meta_mean_motion_ddot": 0,
        "tle_line1": "1 30447U 99025AFJ 25342.10113215  .00014023  00000+0  30876-2 0  9998",
        "tle_line2": "2 30447  98.9711 203.3031 0059992  44.3165 106.7659 14.56431832980282"
      },
      "geometry": {
        "type": "Point",
        "coordinates": [
          -153.91702617828727,
          -9.76055593630926
        ]
      }
    },
    {
      "type": "Feature",
      "properties": {
        "norad_id": 30448,
        "name": "FENGYUN 1C DEB",
        "group": "fengyun-1c-debris",
        "lat": -18.579601313264376,
        "lon": 77.75027777400179,
        "alt_km": 770.7538609349594,
        "timestamp": "2025-12-09T05:43:21.002371+00:00",
        "meta_object_name": "FENGYUN 1C DEB",
        "meta_object_id": "1999-025AFK",
        "meta_epoch": "2025-12-08T18:40:48.645120",
        "meta_mean_motion": 14.3506852,
        "meta_eccentricity": 0.0017084,
        "meta_inclination": 98.8311,
        "meta_ra_of_asc_node": 74.2843,
        "meta_arg_of_pericenter": 24.8771,
        "meta_mean_anomaly": 100.9328,
        "meta_ephemeris_type": 0,
        "meta_classification_type": "U",
        "meta_norad_cat_id": 30448,
        "meta_element_set_no": 999,
        "meta_rev_at_epoch": 97281,
        "meta_bstar": 0.00303,
        "meta_mean_motion_dot": 8.619e-05,
        "meta_mean_motion_ddot": 0,
        "tle_line1": "1 30448U 99025AFK 25342.77834080  .00008619  00000+0  30300-2 0  9998",
        "tle_line2": "2 30448  98.8311  74.2843 0017084  24.8771 100.9328 14.35068520972812"
      },
      "geometry": {
        "type": "Point",
        "coordinates": [
          77.75027777400179,
          -18.579601313264376
        ]
      }
    },
    {
      "type": "Feature",
      "properties": {
        "norad_id": 30450,
        "name": "FENGYUN 1C DEB",
        "group": "fengyun-1c-debris",
        "lat": 50.47254255617385,
        "lon": -172.7364701363992,
        "alt_km": 681.7763384861373,
        "timestamp": "2025-12-09T05:43:21.002381+00:00",
        "meta_object_name": "FENGYUN 1C DEB",
        "meta_object_id": "1999-025AFM",
        "meta_epoch": "2025-12-07T23:41:15.816768",
        "meta_mean_motion": 14.6172756,
        "meta_eccentricity": 0.01889242,
        "meta_inclination": 98.0799,
        "meta_ra_of_asc_node": 356.1263,
        "meta_arg_of_pericenter": 223.2693,
        "meta_mean_anomaly": 166.1514,
        "meta_ephemeris_type": 0,
        "meta_classification_type": "U",
        "meta_norad_cat_id": 30450,
        "meta_element_set_no": 999,
        "meta_rev_at_epoch": 99473,
        "meta_bstar": 0.00081764471,
        "meta_mean_motion_dot": 5.205e-05,
        "meta_mean_motion_ddot": 0,
        "tle_line1": "1 30450U 99025AFM 25341.98698862  .00005205  00000+0  81764-3 0  9998",
        "tle_line2": "2 30450  98.0799 356.1263 0188924 223.2693 166.1514 14.61727560994736"
      },
      "geometry": {
        "type": "Point",
        "coordinates": [
          -172.7364701363992,
          50.47254255617385
        ]
      }
    },
    {
      "type": "Feature",
      "properties": {
        "norad_id": 30452,
        "name": "FENGYUN 1C DEB",
        "group": "fengyun-1c-debris",
        "lat": -77.2158748858791,
        "lon": 167.8391270410527,
        "alt_km": 652.971788832433,
        "timestamp": "2025-12-09T05:43:21.002391+00:00",
        "meta_object_name": "FENGYUN 1C DEB",
        "meta_object_id": "1999-025AFP",
        "meta_epoch": "2025-12-08T09:01:27.662304",
        "meta_mean_motion": 14.64257484,
        "meta_eccentricity": 0.0049693,
        "meta_inclination": 99.3209,
        "meta_ra_of_asc_node": 120.4922,
        "meta_arg_of_pericenter": 264.9146,
        "meta_mean_anomaly": 150.1626,
        "meta_ephemeris_type": 0,
        "meta_classification_type": "U",
        "meta_norad_cat_id": 30452,
        "meta_element_set_no": 999,
        "meta_rev_at_epoch": 98043,
        "meta_bstar": 0.0048679455,
        "meta_mean_motion_dot": 0.00026157,
        "meta_mean_motion_ddot": 0,
        "tle_line1": "1 30452U 99025AFP 25342.37601461  .00026157  00000+0  48679-2 0  9999",
        "tle_line2": "2 30452  99.3209 120.4922 0049693 264.9146 150.1626 14.64257484980431"
      },
      "geometry": {
        "type": "Point",
        "coordinates": [
          167.8391270410527,
          -77.2158748858791
        ]
      }
    },
    {
      "type": "Feature",
      "properties": {
        "norad_id": 30453,
        "name": "FENGYUN 1C DEB",
        "group": "fengyun-1c-debris",
        "lat": 58.49178944868945,
        "lon": -110.3984528709233,
        "alt_km": 839.4690226343355,
        "timestamp": "2025-12-09T05:43:21.002402+00:00",
        "meta_object_name": "FENGYUN 1C DEB",
        "meta_object_id": "1999-025AFQ",
        "meta_epoch": "2025-12-08T16:23:52.976256",
        "meta_mean_motion": 14.24709942,
        "meta_eccentricity": 0.0115511,
        "meta_inclination": 98.813,
        "meta_ra_of_asc_node": 54.3843,
        "meta_arg_of_pericenter": 237.9898,
        "meta_mean_anomaly": 277.5992,
        "meta_ephemeris_type": 0,
        "meta_classification_type": "U",
        "meta_norad_cat_id": 30453,
        "meta_element_set_no": 999,
        "meta_rev_at_epoch": 97176,
        "meta_bstar": 0.0025533,
        "meta_mean_motion_dot": 6.329e-05,
        "meta_mean_motion_ddot": 0,
        "tle_line1": "1 30453U 99025AFQ 25342.68325204  .00006329  00000+0  25533-2 0  9995",
        "tle_line2": "2 30453  98.8130  54.3843 0115511 237.9898 277.5992 14.24709942971766"
      },
      "geometry": {
        "type": "Point",
        "coordinates": [
          -110.3984528709233,
          58.49178944868945
        ]
      }
    }
  ]
}